{"type": "FeatureCollection", "features": [ {"type": "Feature", "properties": {"norad_id": 31195, "name": "FENGYUN 1C DEB", "group": "fengyun-1c-debris", "lat": -28.127146690472404, "lon": 37.008512314351016, "alt_km": 996.2195272451772, "timestamp": "2025-12-25T07:00:34.328201+00:00", "meta": {"OBJECT_NAME": "FENGYUN 1C DEB", "OBJECT_ID": "1999-025BJZ", "EPOCH": "2025-12-22T07:30:58.600800", "MEAN_MOTION": 14.07984939, "ECCENTRICITY": 0.01723215, "INCLINATION": 98.778, "RA_OF_ASC_NODE": 29.3728, "ARG_OF_PERICENTER": 154.2351, "MEAN_ANOMALY": 206.7529, "EPHEMERIS_TYPE": 0, "CLASSIFICATION_TYPE": "U", "NORAD_CAT_ID": 31195, "ELEMENT_SET_NO": 999, "REV_AT_EPOCH": 96233, "BSTAR": 0.00023249282, "MEAN_MOTION_DOT": 4.11e-06, "MEAN_MOTION_DDOT": 0}, "tle": {"line1": "1 31195U 99025BJZ 25356.31317825  .00000411  00000+0  23249-3 0  9993", "line2": "2 31195  98.7780  29.3728 0172321 154.2351 206.7529 14.07984939962336"}}, "geometry": {"type": "Point", "coordinates": [37.008512314351016, -28.127146690472404]}}, {"type": "Feature", "properties": {"norad_id": 31196, "name": "FENGYUN 1C DEB", "group": "fengyun-1c-debris", "lat": -13.515634283133444, "lon": 14.233795118490317, "alt_km": 852.6919121363662, "timestamp": "2025-12-25T07:00:34.328224+00:00", "meta": {"OBJECT_NAME": "FENGYUN 1C DEB", "OBJECT_ID": "1999-025BKA", "EPOCH": "2025-12-20T07:28:00.268608", "MEAN_MOTION": 14.25476414, "ECCENTRICITY": 0.00582224, "INCLINATION": 98.5261, "RA_OF_ASC_NODE": 7.3249, "ARG_OF_PERICENTER": 189.9584, "MEAN_ANOMALY": 170.0447, "EPHEMERIS_TYPE": 0, "CLASSIFICATION_TYPE": "U", "NORAD_CAT_ID": 31196, "ELEMENT_SET_NO": 999, "REV_AT_EPOCH": 63603, "BSTAR": 0.00037193208, "MEAN_MOTION_DOT": 8.52e-06, "MEAN_MOTION_DDOT": 0}, "tle": {"line1": "1 31196U 99025BKA 25354.31111422  .00000852  00000+0  37193-3 0  9999", "line2": "2 31196  98.5261   7.3249 0058222 189.9584 170.0447 14.25476414636030"}}, "geometry": {"type": "Point", "coordinates": [14.233795118490317, -13.515634283133444]}}, {"type": "Feature", "properties": {"norad_id": 31198, "name": "FENGYUN 1C DEB", "group": "fengyun-1c-debris", "lat": -81.35740590606952, "lon": -172.4408426569754, "alt_km": 883.6844184108786, "timestamp": "2025-12-25T07:00:34.328246+00:00", "meta": {"OBJECT_NAME": "FENGYUN 1C DEB", "OBJECT_ID": "1999-025BKC", "EPOCH": "2025-12-23T13:31:50.289600", "MEAN_MOTION": 13.75523772, "ECCENTRICITY": 0.02033724, "INCLINATION": 98.6123, "RA_OF_ASC_NODE": 100.3982, "ARG_OF_PERICENTER": 322.4181, "MEAN_ANOMALY": 36.2902, "EPHEMERIS_TYPE": 0, "CLASSIFICATION_TYPE": "U", "NORAD_CAT_ID": 31198, "ELEMENT_SET_NO": 999, "REV_AT_EPOCH": 62902, "BSTAR": 0.00011369936, "MEAN_MOTION_DOT": 8.8e-07, "MEAN_MOTION_DDOT": 0}, "tle": {"line1": "1 31198U 99025BKC 25357.56377650  .00000088  00000+0  11370-3 0  9998", "line2": "2 31198  98.6123 100.3982 0203372 322.4181  36.2902 13.75523772629027"}}, "geometry": {"type": "Point", "coordinates": [-172.4408426569754, -81.35740590606952]}}, {"type": "Feature", "properties": {"norad_id": 31199, "name": "FENGYUN 1C DEB", "group": "fengyun-1c-debris", "lat": 6.279969096999611, "lon": 162.64375259040008, "alt_km": 831.8244951586248, "timestamp": "2025-12-25T07:00:34.328269+00:00", "meta": {"OBJECT_NAME": "FENGYUN 1C DEB", "OBJECT_ID": "1999-025BKD", "EPOCH": "2025-12-24T04:57:19.082304", "MEAN_MOTION": 14.09995283, "ECCENTRICITY": 0.00634999, "INCLINATION": 98.7161, "RA_OF_ASC_NODE": 340.6248, "ARG_OF_PERICENTER": 226.7848, "MEAN_ANOMALY": 199.9253, "EPHEMERIS_TYPE": 0, "CLASSIFICATION_TYPE": "U", "NORAD_CAT_ID": 31199, "ELEMENT_SET_NO": 999, "REV_AT_EPOCH": 96321, "BSTAR": 0.00015962806, "MEAN_MOTION_DOT": 2.44e-06, "MEAN_MOTION_DDOT": 0}, "tle": {"line1": "1 31199U 99025BKD 25358.20647086  .00000244  00000+0  15963-3 0  9990", "line2": "2 31199  98.7161 340.6248 0063499 226.7848 199.9253 14.09995283963211"}}, "geometry": {"type": "Point", "coordinates": [162.64375259040008, 6.279969096999611]}}, {"type": "Feature", "properties": {"norad_id": 31201, "name": "FENGYUN 1C DEB", "group": "fengyun-1c-debris", "lat": 79.69799084997614, "lon": 160.00790575276693, "alt_km": 831.9164123242908, "timestamp": "2025-12-25T07:00:34.328292+00:00", "meta": {"OBJECT_NAME": "FENGYUN 1C DEB", "OBJECT_ID": "1999-025BKF", "EPOCH": "2025-12-24T02:53:05.063136", "MEAN_MOTION": 14.35225803, "ECCENTRICITY": 0.01421232, "INCLINATION": 99.0018, "RA_OF_ASC_NODE": 219.4895, "ARG_OF_PERICENTER": 318.0263, "MEAN_ANOMALY": 194.3154, "EPHEMERIS_TYPE": 0, "CLASSIFICATION_TYPE": "U", "NORAD_CAT_ID": 31201, "ELEMENT_SET_NO": 999, "REV_AT_EPOCH": 97414, "BSTAR": 0.00096014126, "MEAN_MOTION_DOT": 3.028e-05, "MEAN_MOTION_DDOT": 0}, "tle": {"line1": "1 31201U 99025BKF 25358.12019749  .00003028  00000+0  96014-3 0  9993", "line2": "2 31201  99.0018 219.4895 0142123 318.0263 194.3154 14.35225803974145"}}, "geometry": {"type": "Point", "coordinates": [160.00790575276693, 79.69799084997614]}}, {"type": "Feature", "properties": {"norad_id": 31202, "name": "FENGYUN 1C DEB", "group": "fengyun-1c-debris", "lat": -76.07391162318473, "lon": 70.04284725504472, "alt_km": 663.6830021289779, "timestamp": "2025-12-25T07:00:34.328314+00:00", "meta": {"OBJECT_NAME": "FENGYUN 1C DEB", "OBJECT_ID": "1999-025BKG", "EPOCH": "2025-12-21T09:34:57.882720", "MEAN_MOTION": 14.84207348, "ECCENTRICITY": 0.00689637, "INCLINATION": 96.5715, "RA_OF_ASC_NODE": 39.1289, "ARG_OF_PERICENTER": 148.3475, "MEAN_ANOMALY": 226.6402, "EPHEMERIS_TYPE": 0, "CLASSIFICATION_TYPE": "U", "NORAD_CAT_ID": 31202, "ELEMENT_SET_NO": 999, "REV_AT_EPOCH": 99283, "BSTAR": 0.00068153485, "MEAN_MOTION_DOT": 5.909e-05, "MEAN_MOTION_DDOT": 0}, "tle": {"line1": "1 31202U 99025BKG 25355.39928105  .00005909  00000+0  68153-3 0  9998", "line2": "2 31202  96.5715  39.1289 0068963 148.3475 226.6402 14.84207348992833"}}, "geometry": {"type": "Point", "coordinates": [70.04284725504472, -76.07391162318473]}}, {"type": "Feature", "properties": {"norad_id": 31205, "name": "FENGYUN 1C DEB", "group": "fengyun-1c-debris", "lat": 23.217277082219915, "lon": 89.07685648291077, "alt_km": 897.3523575013041, "timestamp": "2025-12-25T07:00:34.328360+00:00", "meta": {"OBJECT_NAME": "FENGYUN 1C DEB", "OBJECT_ID": "1999-025BKK", "EPOCH": "2025-12-24T05:36:00.827424", "MEAN_MOTION": 14.23967089, "ECCENTRICITY": 0.01623474, "INCLINATION": 99.2284, "RA_OF_ASC_NODE": 91.9647, "ARG_OF_PERICENTER": 164.6669, "MEAN_ANOMALY": 195.9513, "EPHEMERIS_TYPE": 0, "CLASSIFICATION_TYPE": "U", "NORAD_CAT_ID": 31205, "ELEMENT_SET_NO": 999, "REV_AT_EPOCH": 97374, "BSTAR": 0.00014976871, "MEAN_MOTION_DOT": 3.44e-06, "MEAN_MOTION_DDOT": 0}, "tle": {"line1": "1 31205U 99025BKK 25358.23334291  .00000344  00000+0  14977-3 0  9997", "line2": "2 31205  99.2284  91.9647 0162347 164.6669 195.9513 14.23967089973746"}}, "geometry": {"type": "Point", "coordinates": [89.07685648291077, 23.217277082219915]}}, {"type": "Feature", "properties": {"norad_id": 31206, "name": "FENGYUN 1C DEB", "group": "fengyun-1c-debris", "lat": 72.07799350349357, "lon": -121.14000208878588, "alt_km": 767.7684495910653, "timestamp": "2025-12-25T07:00:34.328386+00:00", "meta": {"OBJECT_NAME": "FENGYUN 1C DEB", "OBJECT_ID": "1999-025BKL", "EPOCH": "2025-12-24T17:19:53.240736", "MEAN_MOTION": 14.40554494, "ECCENTRICITY": 0.00771675, "INCLINATION": 98.8438, "RA_OF_ASC_NODE": 267.048, "ARG_OF_PERICENTER": 326.486, "MEAN_ANOMALY": 33.1458, "EPHEMERIS_TYPE": 0, "CLASSIFICATION_TYPE": "U", "NORAD_CAT_ID": 31206, "ELEMENT_SET_NO": 999, "REV_AT_EPOCH": 98018, "BSTAR": 0.00077714096, "MEAN_MOTION_DOT": 2.515e-05, "MEAN_MOTION_DDOT": 0}, "tle": {"line1": "1 31206U 99025BKL 25358.72214399  .00002515  00000+0  77714-3 0  9998", "line2": "2 31206  98.8438 267.0480 0077167 326.4860  33.1458 14.40554494980188"}}, "geometry": {"type": "Point", "coordinates": [-121.14000208878588, 72.07799350349357]}}, {"type": "Feature", "properties": {"norad_id": 31208, "name": "FENGYUN 1C DEB", "group": "fengyun-1c-debris", "lat": -29.471283825396746, "lon": -40.81424482870325, "alt_km": 680.3605929177083, "timestamp": "2025-12-25T07:00:34.328406+00:00", "meta": {"OBJECT_NAME": "FENGYUN 1C DEB", "OBJECT_ID": "1999-025BKN", "EPOCH": "2025-12-13T08:25:55.088256", "MEAN_MOTION": 14.61862471, "ECCENTRICITY": 0.00160842, "INCLINATION": 99.2396, "RA_OF_ASC_NODE": 131.1249, "ARG_OF_PERICENTER": 265.8015, "MEAN_ANOMALY": 126.2818, "EPHEMERIS_TYPE": 0, "CLASSIFICATION_TYPE": "U", "NORAD_CAT_ID": 31208, "ELEMENT_SET_NO": 999, "REV_AT_EPOCH": 70488, "BSTAR": 0.0052061327, "MEAN_MOTION_DOT": 0.00026113, "MEAN_MOTION_DDOT": 0}, "tle": {"line1": "1 31208U 99025BKN 25347.35133204  .00026113  00000+0  52061-2 0  9999", "line2": "2 31208  99.2396 131.1249 0016084 265.8015 126.2818 14.61862471704886"}}, "geometry": {"type": "Point", "coordinates": [-40.81424482870325, -29.471283825396746]}}, {"type": "Feature", "properties": {"norad_id": 31209, "name": "FENGYUN 1C DEB", "group": "fengyun-1c-debris", "lat": -66.16619796239225, "lon": 115.64959104571477, "alt_km": 738.2493133403723, "timestamp": "2025-12-25T07:00:34.328426+00:00", "meta": {"OBJECT_NAME": "FENGYUN 1C DEB", "OBJECT_ID": "1999-025BKP", "EPOCH": "2025-12-21T00:11:20.723136", "MEAN_MOTION": 14.43601309, "ECCENTRICITY": 0.00221345, "INCLINATION": 98.8841, "RA_OF_ASC_NODE": 90.4449, "ARG_OF_PERICENTER": 316.9887, "MEAN_ANOMALY": 42.9572, "EPHEMERIS_TYPE": 0, "CLASSIFICATION_TYPE": "U", "NORAD_CAT_ID": 31209, "ELEMENT_SET_NO": 999, "REV_AT_EPOCH": 64927, "BSTAR": 0.001595757, "MEAN_MOTION_DOT": 5.381e-05, "MEAN_MOTION_DDOT": 0}, "tle": {"line1": "1 31209U 99025BKP 25355.00787874  .00005381  00000+0  15958-2 0  9997", "line2": "2 31209  98.8841  90.4449 0022134 316.9887  42.9572 14.43601309649277"}}, "geometry": {"type": "Point", "coordinates": [115.64959104571477, -66.16619796239225]}}]}